#dP2020  6 29  0  0  0.00000000      96 __u+U ITR00 FIT  IAC
## 2112  86400.00000000   900.00000000 59029 0.0000000000000
+  113   C02C03C04C05C06C07C08C09C10C11C12C13C14C16C19C20C21
+        C22C23C24C25C26C27C28C29C30C32C33C34C35C36C37E01E02
+        E03E04E05E07E08E09E11E12E13E14E15E18E19E21E24E25E26
+        E27E30E31E33E36G01G02G03G04G05G06G07G08G09G10G11G12
+        G13G14G15G16G17G18G19G20G21G22G24G25G26G27G28G29G30
+        G31G32J01J02J03J07R01R02R03R04R05R07R08R09R11R12R13
+        R14R15R16R17R18R19R20R21R23R24R26  0  0  0  0  0  0
++        13 13 14  0  8  9  9  8  8  8  8  8  7  8  8  8  8
++         8  7  7  7  8  8  8 10  8  8  8  8  8  8  8  5  4
++         4  5  4  4  4  4  5  4  5  4  5  4  4  4  4  4  4
++         4  4  4  5  5  3  3  3  3  3  3  3  3  3  3  4  3
++         3  4  3  4  4  3  3  3  3  3  3  4  4  3  4  3  3
++         3  3  8  8  8 16  6  6  5  5  5  5  6  5  6  5  6
++         5  5  6  6  5  6  6  5  6  6  8  0  0  0  0  0  0
%c M  cc GPS ccc cccc cccc cccc cccc ccccc ccccc ccccc ccccc
%c cc cc ccc ccc cccc cccc cccc cccc ccccc ccccc ccccc ccccc
%f  0.0000000  0.000000000  0.00000000000  0.000000000000000
%f  0.0000000  0.000000000  0.00000000000  0.000000000000000
%i    0    0    0    0      0      0      0      0         0
%i    0    0    0    0      0      0      0      0         0
/* INFORMATION & ANALYSIS CENTER (IAC)            RAPID DATA
/* S/V CLOCKS ARE ALIGNED TO GNSS TIME                      
/* G:C1WC2W R:C1PC2P E:C1XC5X C:C2IC6I J:C1CC2S             
/* PCV:IGS14_2108 OL/AL:FES2004  NONE     YN ORB:CoN CLK:CoN
*  2020 06 29  4  0  0.00000000
PC02   4371.787337  41931.165532   -535.923448    250.661617
PC03 -14753.955538  39458.837760    459.303702    844.513465
PC04 -39588.972727  14448.960518    627.031659   -138.176647
PC05      0.000000      0.000000      0.000000 999999.999999
PC06 -12457.539323  21210.380349 -33859.508001    766.329662
PC07 -22887.529653  32565.482969  13323.363306      7.893102
PC08  -8085.837589  36409.349805  20081.149303   -341.217492
PC09   4815.748021  27642.870063 -31080.538361    641.797020
PC10  -9582.874694  33057.327586  24249.752514   -250.027926
PC11  21427.818872   2721.417167 -17646.197033   -458.253851
PC12  22273.344528  16765.720945  -1525.842361    415.321056
PC13   1026.181235  41800.649029   6525.857510    515.689745
PC14  26614.281913  -6943.211856  -4875.888707    596.244091
PC16  -9049.258299  22406.072732 -34471.788451   -608.276868
PC19 -24355.853174  12915.807757  -4221.645337    458.917490
PC20 -24897.074835    547.368600  12577.686994   -845.314854
PC21  10633.930232  12608.445334 -22491.381209   -589.222696
PC22  -9616.031328  18032.966819 -18978.082277   -778.633142
PC23   5614.170588 -27286.403348   1718.603143   -848.008415
PC24  15499.922727   5075.786081  22644.301502   -778.974939
PC25  14471.548955 -16625.092587  17105.923928   -668.189552
PC26   7890.662346  22069.844202  15166.110875    735.632646
PC27 -17045.249368 -20806.233997  -7492.172810    355.557892
PC28   -286.839241 -18760.449372 -20655.906461   -206.028569
PC29 -16339.423817   6413.829733  21684.155681    248.913114
PC30 -24173.849337 -10005.073774   9732.264981    338.925949
PC32 -10709.955324 -12572.950432  22509.758095   -876.424107
PC33  24324.463030 -13047.032518   4202.473749   -805.696768
PC34  24118.388590   9642.357986 -10182.470410   -855.131023
PC35    682.265078  18688.913281  20696.199995   -774.485250
PC36 -14901.861228  16081.281612 -17230.264282   -856.229092
PC37  -6959.617548 -22682.235976 -14661.293886   -859.020359
PE01  -6031.486739  25455.051829  13848.451323   -887.565655
PE02   5954.094242 -25430.067320 -13922.891384    143.712702
PE03  -1102.524271 -17200.873472  24069.625170   -314.993386
PE04  21526.847987  12724.713973 -15830.657882   -555.423408
PE05  20186.113249 -11631.317677  18271.918287   -367.618749
PE07 -29526.869467   -699.190590  -1833.532339   -402.012695
PE08 -21765.557972 -12406.790872  15759.514363   6157.046002
PE09  29543.060966    434.579109   1970.793413   6013.277853
PE11  18912.005347   5093.222418 -22199.325343   3765.219502
PE12  17077.987723  22959.352423  -7541.474868   5731.856346
PE13 -18927.289639  -5335.744790  22125.453684    401.944512
PE14 -23421.240811  -2636.493638   7854.000697  -1066.161288
PE15 -17234.759602 -22787.583256   7747.693369    861.842681
PE18  24171.269252  -7137.509554 -19580.763317  -1168.078251
PE19  -1332.287089  16938.627089 -24227.043814     14.872572
PE21 -18615.968377  22603.228854  -4305.894372   -607.223365
PE24  20592.097576  -6027.760909  20375.598614   5377.864637
PE25  18680.407043 -22532.001698   4445.895664   -512.856992
PE26  -9431.655456  15682.369861  23264.595434   3018.950678
PE27 -20600.211965   6457.507750 -20246.064973    188.436239
PE30 -10153.619633 -13838.823604 -24121.030399   3788.476566
PE31  10485.591884  13400.147145  24228.300009   -473.039453
PE33   5411.138616  26858.861470  11193.311773   -465.537543
PE36   9504.392861 -15261.175769 -23516.104321    540.823665
PG01 -14481.017542   2391.475627  21910.200326     18.391901
PG02  13658.144740  19235.852089 -11609.584253   -479.435168
PG03 -22243.093405   9972.904164  10354.114517   -223.821511
PG04 -22569.708273   1904.560618 -13885.677642   -108.389615
PG05  14270.558619   7388.828336 -21315.829243    -15.598257
PG06   6417.479038  25673.661991  -1903.935877   -295.805116
PG07  -7150.119709  20157.122532 -15111.737113   -315.381755
PG08 -25824.316570  -5903.384621   3355.323323    -39.196847
PG09 -13326.239259  10875.331754 -20291.072907   -244.694967
PG10   6439.706969 -20269.047190  15845.930218   -384.982773
PG11 -19984.114444  -5527.228962  15933.153768   -235.537812
PG12  22758.386927  -8711.529024  10141.456956    100.318781
PG13  22685.548709  13567.138533  -3217.258785     22.313649
PG14 -12784.506028 -17550.540027  15773.761641     -2.457424
PG15  26298.763748   3305.123257   3398.705285   -221.045526
PG16 -15456.610773  -6220.759769 -21005.424476   -176.291514
PG17   3853.918525  16536.310455  20858.354991    288.041684
PG18   7301.414104 -20374.429910 -15389.404273    232.998802
PG19  11889.233017  17253.516474  16043.542154   -138.904004
PG20  14263.772754 -21729.530800   4759.753208    527.412654
PG21  -3989.876652 -25977.605877  -4101.579512     17.431904
PG22 -20559.694948   3686.478597  16533.937825   -775.327746
PG24  15888.907469   -668.164144  21104.750232    -14.975816
PG25  20380.777889 -16750.114019   1183.431385     17.799406
PG26  -4810.262538 -15934.229225 -20686.534099    234.036640
PG27 -22408.388318 -12737.927365  -7244.757700   -332.728869
PG28  -6590.549083  19403.606406  17558.981203    704.400459
PG29  17436.587507  -6385.803836 -19047.336562   -138.636018
PG30   -210.254614  25748.575878  -5980.784785   -251.494249
PG31  -6999.852880 -25085.183206  -3794.601084    -52.224560
PG32  -5655.174791 -16719.985836  19977.557063    308.340627
PJ01 -35363.375143  18767.057302  -8438.363813   -280.172261
PJ02 -25005.775183  31650.863195  -7607.853381     -0.830831
PJ03 -25849.689919  23183.189186  29052.320725     -4.657360
PJ07 -25373.189917  33666.125640    -20.989204      0.004415
PR01  -8476.492008  -9185.389523  22238.963526     63.779384
PR02 -24156.088256    521.399630   8306.205833    433.835555
PR03 -22175.384019   8694.714197  -9146.112675     17.612887
PR04  -7621.361806  11669.542538 -21332.873923     54.449546
PR05  11161.123476   8122.470906 -21430.807077     53.167017
PR07  21770.316711  -8928.873910   9840.394326    -37.995972
PR08   7557.676641 -11802.029766  21367.528729    -53.139796
PR09  12709.439706  -4338.577095  21717.398595    140.612171
PR11   6256.552740 -24421.899062  -4049.205501    -28.739532
PR12  -3250.360235 -17347.653038 -18380.106903    142.921042
PR13 -11417.266462    -31.068425 -22822.839908    -40.575873
PR14 -12871.011651  17290.985471 -13609.946015     52.789412
PR15  -6816.378033  24364.334319   3261.370765    106.917058
PR16   4030.657406  16953.402568  18659.458794     -4.405946
PR17 -10486.437052   3833.576218  22933.072589    336.964982
PR18   2607.462720  16469.442957  19290.192582     40.483076
PR19  13600.761897  20803.198275   5741.278866   -100.049167
PR20  17735.635025  12312.079526 -13548.992310   -415.442887
PR21   9823.801283  -4566.130934 -23101.403342   -134.603524
PR23 -16872.718593 -19087.745529   1276.805187    315.266268
PR24 -17959.847462 -11465.071154  14023.841370      4.384289
PR26  18291.531809  15275.034189  -9129.397876   -391.540897
EOF
